NORAD_CAT_ID,OBJECT_NAME,OBJECT_TYPE,EPOCH,MEAN_MOTION,ECCENTRICITY,INCLINATION,RA_OF_ASC_NODE,ARG_OF_PERICENTER,MEAN_ANOMALY,BSTAR,MEAN_MOTION_DOT,MEAN_MOTION_DDOT,TLE_LINE0,TLE_LINE1,TLE_LINE2,SEMIMAJOR_AXIS,PERIOD,APOGEE,PERIGEE,DECAYED
53578.0,STARLINK-4556,PAYLOAD,2022-09-02 14:00:01,15.73258914,0.0001536,53.2168,86.4324,68.7154,121.5691,-0.0006741,-0.00094411,0.0,0 STARLINK-4556,1 53578U 22101BD  22245.58334491 -.00094411  00000-0 -67410-3 0  9998,2 53578  53.2168  86.4324 0001536  68.7154 121.5691 15.73258914  1302,6727.727,91.53,350.626,348.559,0.0
53578.0,STARLINK-4556,PAYLOAD,2022-09-02 20:00:01,15.73248867,0.0001561999999999,53.2159,85.1995,55.3791,111.6324,-0.00024618,-0.00035099,0.0,0 STARLINK-4556,1 53578U 22101BD  22245.83334491 -.00035099  00000-0 -24618-3 0  9996,2 53578  53.2159  85.1995 0001562  55.3791 111.6324 15.73248867  2232,6727.755999999999,91.53,350.672,348.57,0.0
53578.0,STARLINK-4556,PAYLOAD,2022-09-02 22:00:01,15.73258516,0.000156,53.216,84.7875,53.6722,225.6507,-0.00034459,-0.00048824,0.0,0 STARLINK-4556,1 53578U 22101BD  22245.91668981 -.00048824  00000-0 -34459-3 0  9993,2 53578  53.2160  84.7875 0001560  53.6722 225.6507 15.73258516  1307,6727.728,91.53,350.64300000000014,348.5440000000001,0.0
53578.0,STARLINK-4556,PAYLOAD,2022-09-03 14:00:01,15.73199208,0.0001381,53.2162,81.4865,61.4937,35.6951,0.00017811,0.00024448,0.0,0 STARLINK-4556,1 53578U 22101BD  22246.58334491  .00024448  00000-0  17811-3 0  9990,2 53578  53.2162  81.4865 0001381  61.4937  35.6951 15.73199208  2358,6727.897,91.533,350.69199999999995,348.833,0.0
53578.0,STARLINK-4556,PAYLOAD,2022-09-03 22:00:00,15.73200138,0.0001527,53.2164,79.8391,50.8103,135.31799999999998,0.00048908,0.00068582,0.0,0 STARLINK-4556,1 53578U 22101BD  22246.91667824  .00068582  00000-0  48908-3 0  9994,2 53578  53.2164  79.8391 0001527  50.8103 135.3180 15.73200138  1305,6727.895,91.533,350.787,348.732,0.0
53578.0,STARLINK-4556,PAYLOAD,2022-09-04 12:00:00,15.73203534,0.0001621999999999,53.2175,76.9449,60.6938,190.9363,1.3775e-05,1.313e-05,0.0,0 STARLINK-4556,1 53578U 22101BD  22247.50001157  .00001313  00000-0  13775-4 0  9995,2 53578  53.2175  76.9449 0001622  60.6938 190.9363 15.73203534  2494,6727.885,91.533,350.841,348.659,0.0
53578.0,STARLINK-4556,PAYLOAD,2022-09-04 14:00:01,15.73204832,0.000166,53.2177,76.533,60.2568,303.6717,-2.8117e-06,-1.015e-05,0.0,0 STARLINK-4556,1 53578U 22101BD  22247.58335648 -.00001015  00000-0 -28117-5 0  9996,2 53578  53.2177  76.5330 0001660  60.2568 303.6717 15.73204832  1305,6727.880999999999,91.533,350.86300000000006,348.63,0.0
53578.0,STARLINK-4556,PAYLOAD,2022-09-04 16:00:00,15.73209101,0.0001141,53.2162,76.1266,38.6371,77.5894,0.00022435,0.00030994,0.0,0 STARLINK-4556,1 53578U 22101BD  22247.66667824  .00030994  00000-0  22435-3 0  9990,2 53578  53.2162  76.1266 0001141  38.6371  77.5894 15.73209101  2520,6727.869000000002,91.533,350.50199999999984,348.967,0.0
53578.0,STARLINK-4556,PAYLOAD,2022-09-04 20:00:01,15.73220483,0.000132,53.216,75.3028,35.7337,304.9644,0.00023968,0.0003318,0.0,0 STARLINK-4556,1 53578U 22101BD  22247.83334491  .00033180  00000-0  23968-3 0  9992,2 53578  53.2160  75.3028 0001320  35.7337 304.9644 15.73220483  1305,6727.837,91.532,350.59,348.814,0.0
53578.0,STARLINK-4556,PAYLOAD,2022-09-05 12:00:00,15.73251696,0.0001345,53.2158,72.0017,53.1593,105.4881,-0.00050659,-0.00071274,0.0,0 STARLINK-4556,1 53578U 22101BD  22248.50001157 -.00071274  00000-0 -50659-3 0  9992,2 53578  53.2158  72.0017 0001345  53.1593 105.4881 15.73251696  2655,6727.748000000001,91.53,350.51800000000014,348.708,0.0
53578.0,STARLINK-4556,PAYLOAD,2022-09-05 14:00:01,15.73251783,0.0001359,53.216,71.5898,51.572,219.318,-0.00071362,-0.00099813,0.0,0 STARLINK-4556,1 53578U 22101BD  22248.58334491 -.00099813  00000-0 -71362-3 0  9993,2 53578  53.2160  71.5898 0001359  51.5720 219.3180 15.73251783  1303,6727.748000000001,91.53,350.527,348.6980000000001,0.0
53578.0,STARLINK-4556,PAYLOAD,2022-09-05 20:00:01,15.73189128,0.0001564999999999,53.2159,70.3543,44.785,202.8317,-0.00055558,-0.00077841,0.0,0 STARLINK-4556,1 53578U 22101BD  22248.83334491 -.00077841  00000-0 -55558-3 0  9997,2 53578  53.2159  70.3543 0001565  44.7850 202.8317 15.73189128  1304,6727.926,91.534,350.844,348.73800000000006,0.0
53578.0,STARLINK-4556,PAYLOAD,2022-09-06 14:00:01,15.73122238,0.0001365,53.216,66.6417,43.6068,133.9175,0.00024755,0.00034148,0.0,0 STARLINK-4556,1 53578U 22101BD  22249.58334491  .00034148  00000-0  24755-3 0  9996,2 53578  53.2160  66.6417 0001365  43.6068 133.9175 15.73122238  1306,6728.1169999999975,91.538,350.9,349.06300000000016,0.0
53578.0,STARLINK-4556,PAYLOAD,2022-09-06 20:00:01,15.73135271,0.0001568,53.2156,65.4062,36.8442,117.3244,0.00048992,0.00068509,0.0,0 STARLINK-4556,1 53578U 22101BD  22249.83334491  .00068509  00000-0  48992-3 0  9991,2 53578  53.2156  65.4062 0001568  36.8442 117.3244 15.73135271  2865,6728.08,91.537,351.0,348.89,0.0
53578.0,STARLINK-4556,PAYLOAD,2022-09-06 22:00:00,15.73126031,0.0001599,53.2155,64.9941,35.5184,230.8655,0.00072824,0.00102514,0.0,0 STARLINK-4556,1 53578U 22101BD  22249.91667824  .00102514  00000-0  72824-3 0  9995,2 53578  53.2155  64.9941 0001599  35.5184 230.8655 15.73126031  1306,6728.106,91.537,351.047,348.895,0.0
53578.0,STARLINK-4556,PAYLOAD,2022-09-07 12:00:00,15.73246826,0.0001404,53.2154,62.1051,44.4958,287.4633,-0.00019597,-0.00028087,0.0,0 STARLINK-4556,1 53578U 22101BD  22250.50001157 -.00028087  00000-0 -19597-3 0  9995,2 53578  53.2154  62.1051 0001404  44.4958 287.4633 15.73246826  2962,6727.762,91.53,350.571,348.682,0.0
53578.0,STARLINK-4556,PAYLOAD,2022-09-07 14:00:01,15.7325652,0.0001478,53.2154,61.6933,43.4632,40.7366,-0.00041186,-0.00058164,0.0,0 STARLINK-4556,1 53578U 22101BD  22250.58334491 -.00058164  00000-0 -41186-3 0  9991,2 53578  53.2154  61.6933 0001478  43.4632  40.7366 15.73256520  1306,6727.734,91.53,350.593,348.605,0.0
53578.0,STARLINK-4556,PAYLOAD,2022-09-07 22:00:00,15.73178863,0.0001689,53.2155,60.0453,37.1135,136.03799999999998,0.00078037,0.00110249,0.0,0 STARLINK-4556,1 53578U 22101BD  22250.91667824  .00110249  00000-0  78037-3 0  9993,2 53578  53.2155  60.0453 0001689  37.1135 136.0380 15.73178863  1307,6727.955,91.534,350.957,348.684,0.0
53578.0,STARLINK-4556,PAYLOAD,2022-09-08 14:00:01,15.7323434,0.0001541,53.2156,56.7443,34.8754,316.1753,1.7508e-05,1.841e-05,0.0,0 STARLINK-4556,1 53578U 22101BD  22251.58334491  .00001841  00000-0  17508-4 0  9992,2 53578  53.2156  56.7443 0001541  34.8754 316.1753 15.73234340  1305,6727.797,91.531,350.699,348.626,0.0
53578.0,STARLINK-4556,PAYLOAD,2022-09-08 22:00:00,15.73217689,0.0001785,53.215,55.0961,31.9211,48.1138,-6.5046e-05,-9.746e-05,0.0,0 STARLINK-4556,1 53578U 22101BD  22251.91667824 -.00009746  00000-0 -65046-4 0  9992,2 53578  53.2150  55.0961 0001785  31.9211  48.1138 15.73217689  3197,6727.845,91.532,350.911,348.509,0.0
53578.0,STARLINK-4556,PAYLOAD,2022-09-09 14:00:01,15.73261822,0.0001605,53.2154,51.7954,34.4678,223.4614,-0.00063857,-0.00089531,0.0,0 STARLINK-4556,1 53578U 22101BD  22252.58334491 -.00089531  00000-0 -63857-3 0  9994,2 53578  53.2154  51.7954 0001605  34.4678 223.4614 15.73261822  3298,6727.719,91.53,350.664,348.504,0.0
53578.0,STARLINK-4556,PAYLOAD,2022-09-09 22:00:00,15.73190069,0.0001882,53.2156,50.1462,29.1555,317.7403,0.0001747,0.00023958,0.0,0 STARLINK-4556,1 53578U 22101BD  22252.91667824  .00023958  00000-0  17470-3 0  9999,2 53578  53.2156  50.1462 0001882  29.1555 317.7403 15.73190069  1306,6727.9230000000025,91.534,351.055,348.522,0.0
53578.0,STARLINK-4556,PAYLOAD,2022-09-10 04:00:00,15.73207299,0.0001696999999999,53.2158,48.9081,30.8572,292.7601,-0.00015828,-0.00022782,0.0,0 STARLINK-4556,1 53578U 22101BD  22253.16667824 -.00022782  00000-0 -15828-3 0  9998,2 53578  53.2158  48.9081 0001697  30.8572 292.7601 15.73207299  3388,6727.874,91.533,350.881,348.598,0.0
53578.0,STARLINK-4556,PAYLOAD,2022-09-10 14:00:01,15.73193763,0.0001854,53.2158,46.8465,31.6734,133.0953,-0.00025022,-0.00035582,0.0,0 STARLINK-4556,1 53578U 22101BD  22253.58334491 -.00035582  00000-0 -25022-3 0  9994,2 53578  53.2158  46.8465 0001854  31.6734 133.0953 15.73193763  1302,6727.913000000001,91.534,351.025,348.531,0.0
53578.0,STARLINK-4556,PAYLOAD,2022-09-10 22:00:00,15.73202486,0.0001693,53.2172,45.1932,34.596,219.0178,3.2692e-05,3.97e-05,0.0,0 STARLINK-4556,1 53578U 22101BD  22253.91667824  .00003970  00000-0  32692-4 0  9996,2 53578  53.2172  45.1932 0001693  34.5960 219.0178 15.73202486  1300,6727.888000000001,91.533,350.892,348.61400000000015,0.0
53578.0,STARLINK-4556,PAYLOAD,2022-09-11 12:00:00,15.73239798,0.0001864,53.2158,42.3096,30.8299,288.5244,-0.00042475,-0.00059914,0.0,0 STARLINK-4556,1 53578U 22101BD  22254.50001157 -.00059914  00000-0 -42475-3 0  9993,2 53578  53.2158  42.3096 0001864  30.8299 288.5244 15.73239798  3592,6727.781999999997,91.531,350.901,348.39300000000014,0.0
53578.0,STARLINK-4556,PAYLOAD,2022-09-11 14:00:01,15.73220314,0.0001952,53.2157,41.8979,29.6055,41.9932,-0.00023817,-0.00033943,0.0,0 STARLINK-4556,1 53578U 22101BD  22254.58334491 -.00033943  00000-0 -23817-3 0  9994,2 53578  53.2157  41.8979 0001952  29.6055  41.9932 15.73220314  1305,6727.837,91.532,351.016,348.389,0.0
53578.0,STARLINK-4556,PAYLOAD,2022-09-11 22:00:00,15.732115099999998,0.0002150999999999,53.2158,40.2494,26.0349,134.4956,-0.00012116,-0.000176,0.0,0 STARLINK-4556,1 53578U 22101BD  22254.91667824 -.00017600  00000-0 -12116-3 0  9992,2 53578  53.2158  40.2494 0002151  26.0349 134.4956 15.73211510  1302,6727.861999999999,91.533,351.175,348.28,0.0
53578.0,STARLINK-4556,PAYLOAD,2022-09-12 04:00:00,15.73203864,0.0002041999999999,53.2163,39.0105,26.9004,110.3369,-0.00028478,-0.00040406,0.0,0 STARLINK-4556,1 53578U 22101BD  22255.16667824 -.00040406  00000-0 -28478-3 0  9998,2 53578  53.2163  39.0105 0002042  26.9004 110.3369 15.73203864  3709,6727.884,91.533,351.12300000000016,348.375,0.0
